{
"type": "FeatureCollection",
"name": "study_area_boundary",
"crs": { "type": "name", "properties": { "name": "urn:ogc:def:crs:OGC:1.3:CRS84" } },
"features": [
{ "type": "Feature", "properties": { "name": "Sindh Wind Corridor", "districts": "Thatta District, Badin District" }, "geometry": { "type": "MultiPolygon", "coordinates": [ [ [ [ 66.9227978, 24.5990607 ], [ 67.0703583, 24.7235113 ], [ 67.0860122, 24.7367063 ], [ 67.0931075, 24.7460813 ], [ 67.108969, 24.7557674 ], [ 67.1126892, 24.7581769 ], [ 67.1219924, 24.7646006 ], [ 67.1362975, 24.771355 ], [ 67.1442382, 24.7750181 ], [ 67.1504882, 24.7779012 ], [ 67.1623214, 24.7803742 ], [ 67.16976, 24.7817041 ], [ 67.180815, 24.7865251 ], [ 67.187848, 24.787194 ], [ 67.1924028, 24.7898122 ], [ 67.2024965, 24.7959834 ], [ 67.2150392, 24.795651 ], [ 67.2182664, 24.794238 ], [ 67.2257738, 24.789355 ], [ 67.2309694, 24.786529 ], [ 67.2411588, 24.7836046 ], [ 67.2450727, 24.7839163 ], [ 67.2486433, 24.7852047 ], [ 67.2615064, 24.7901294 ], [ 67.2739805, 24.7878853 ], [ 67.2870954, 24.7822124 ], [ 67.300073, 24.7747935 ], [ 67.3080152, 24.7693902 ], [ 67.315431, 24.7646933 ], [ 67.3201688, 24.762802 ], [ 67.3266462, 24.7621577 ], [ 67.3303312, 24.7619291 ], [ 67.3359388, 24.7625734 ], [ 67.343057, 24.7680809 ], [ 67.3511823, 24.7708865 ], [ 67.3557829, 24.7711567 ], [ 67.3638395, 24.7729232 ], [ 67.3683714, 24.7766639 ], [ 67.375398, 24.7776406 ], [ 67.3828825, 24.7772873 ], [ 67.3871626, 24.776747 ], [ 67.3976453, 24.7776614 ], [ 67.4056104, 24.7771211 ], [ 67.4127287, 24.7714269 ], [ 67.4202818, 24.7660442 ], [ 67.4247907, 24.766065 ], [ 67.4298032, 24.7707203 ], [ 67.4349302, 24.7746065 ], [ 67.4445203, 24.7757495 ], [ 67.4497617, 24.7758118 ], [ 67.4496702, 24.7799473 ], [ 67.4457105, 24.7854748 ], [ 67.4431013, 24.7868463 ], [ 67.4408582, 24.7888411 ], [ 67.4397596, 24.7905658 ], [ 67.4397799, 24.7917702 ], [ 67.4394771, 24.7930161 ], [ 67.4397059, 24.7941589 ], [ 67.4409877, 24.796673 ], [ 67.440507, 24.8001221 ], [ 67.440507, 24.8020752 ], [ 67.4411937, 24.8042152 ], [ 67.4396144, 24.8082874 ], [ 67.4394084, 24.8106973 ], [ 67.4371653, 24.8142707 ], [ 67.4361583, 24.8165144 ], [ 67.4364329, 24.818114 ], [ 67.4369136, 24.8201914 ], [ 67.4363871, 24.8230167 ], [ 67.4356318, 24.8247201 ], [ 67.4365016, 24.8267974 ], [ 67.4383784, 24.8296017 ], [ 67.4388591, 24.832032 ], [ 67.4395457, 24.8328006 ], [ 67.440095, 24.8338184 ], [ 67.440713, 24.8350855 ], [ 67.440095, 24.8357502 ], [ 67.4392253, 24.8364772 ], [ 67.4390651, 24.8369757 ], [ 67.4390193, 24.8376611 ], [ 67.4392024, 24.838575 ], [ 67.4394084, 24.8398836 ], [ 67.4379435, 24.842023 ], [ 67.4372111, 24.8422307 ], [ 67.4362727, 24.8425422 ], [ 67.4360667, 24.8436638 ], [ 67.4362727, 24.8453046 ], [ 67.4628001, 24.84545 ], [ 67.4676524, 24.8448685 ], [ 67.4732668, 24.8435376 ], [ 67.4764941, 24.8422707 ], [ 67.483681, 24.8385735 ], [ 67.4880755, 24.8342323 ], [ 67.4910967, 24.8297871 ], [ 67.4936373, 24.8242823 ], [ 67.4969332, 24.8180086 ], [ 67.4986041, 24.8152456 ], [ 67.5032961, 24.8112775 ], [ 67.5123599, 24.8048577 ], [ 67.5162737, 24.8025723 ], [ 67.5185854, 24.8013464 ], [ 67.5216296, 24.8003907 ], [ 67.528702, 24.7982714 ], [ 67.5377429, 24.7957157 ], [ 67.5440142, 24.794095 ], [ 67.5503542, 24.7922249 ], [ 67.554291, 24.791186 ], [ 67.5611804, 24.7889003 ], [ 67.5646594, 24.7881522 ], [ 67.569649, 24.7872587 ], [ 67.5738261, 24.7869094 ], [ 67.5808756, 24.7872394 ], [ 67.5827753, 24.7878029 ], [ 67.5818598, 24.7940366 ], [ 67.5805401, 24.7969429 ], [ 67.5614893, 24.838889 ], [ 67.5427668, 24.8778905 ], [ 67.5356514, 24.8938769 ], [ 67.5335228, 24.8986312 ], [ 67.5237953, 24.9206565 ], [ 67.5213463, 24.9400006 ], [ 67.5205326, 24.984229 ], [ 67.5222218, 24.9837767 ], [ 67.523, 24.9836315 ], [ 67.5254948, 24.9834655 ], [ 67.528516, 24.9829883 ], [ 67.5320179, 24.9846065 ], [ 67.5335514, 24.9850215 ], [ 67.5347416, 24.9852912 ], [ 67.537122, 24.9874695 ], [ 67.5402577, 24.992158 ], [ 67.5422947, 24.9939628 ], [ 67.5443318, 24.9946474 ], [ 67.5465061, 24.9962032 ], [ 67.5538532, 25.0034013 ], [ 67.5654576, 25.0136895 ], [ 67.5751393, 25.0240805 ], [ 67.5837452, 25.0436986 ], [ 67.5869496, 25.0464773 ], [ 67.5936329, 25.0476178 ], [ 67.6074138, 25.0442541 ], [ 67.6192241, 25.0398372 ], [ 67.6332316, 25.0334086 ], [ 67.6532817, 25.0302771 ], [ 67.6659388, 25.0296964 ], [ 67.6876368, 25.0295305 ], [ 67.7061305, 25.0323509 ], [ 67.7237315, 25.0393603 ], [ 67.7282848, 25.0452519 ], [ 67.7328395, 25.059165 ], [ 67.7423839, 25.0721851 ], [ 67.758932, 25.0855355 ], [ 67.7743129, 25.0931844 ], [ 67.7902202, 25.1016411 ], [ 67.8067454, 25.1080454 ], [ 67.8197459, 25.1130609 ], [ 67.8319224, 25.1185113 ], [ 67.8442134, 25.1265933 ], [ 67.850645, 25.1341982 ], [ 67.8531169, 25.1433151 ], [ 67.85358, 25.1609976 ], [ 67.8539234, 25.1713139 ], [ 67.8547244, 25.1777353 ], [ 67.8542438, 25.1830379 ], [ 67.8534427, 25.1884231 ], [ 67.8533969, 25.1924411 ], [ 67.8532596, 25.1956927 ], [ 67.8530307, 25.2021543 ], [ 67.8528018, 25.2064203 ], [ 67.8523598, 25.2106043 ], [ 67.84824, 25.2171686 ], [ 67.8472787, 25.2205231 ], [ 67.8456765, 25.2265278 ], [ 67.8447381, 25.2282256 ], [ 67.8462029, 25.230586 ], [ 67.8501397, 25.2360105 ], [ 67.8524514, 25.2399441 ], [ 67.8557015, 25.2434015 ], [ 67.8578072, 25.2475419 ], [ 67.8586083, 25.2490738 ], [ 67.864605, 25.255843 ], [ 67.8666192, 25.2594655 ], [ 67.8732339, 25.2639366 ], [ 67.8755227, 25.2660685 ], [ 67.8784753, 25.2720503 ], [ 67.8805123, 25.2738717 ], [ 67.8845406, 25.2809706 ], [ 67.8868066, 25.283599 ], [ 67.8898736, 25.286041 ], [ 67.8931008, 25.2896626 ], [ 67.894703, 25.2935739 ], [ 67.8975411, 25.2990162 ], [ 67.9012948, 25.3005889 ], [ 67.9100243, 25.3036971 ], [ 67.9171425, 25.3081045 ], [ 67.9216515, 25.3101943 ], [ 67.9282433, 25.3155118 ], [ 67.9331642, 25.3230014 ], [ 67.9329811, 25.3268909 ], [ 67.9321572, 25.3329317 ], [ 67.9311501, 25.3356417 ], [ 67.9304176, 25.3401513 ], [ 67.9308754, 25.3448676 ], [ 67.9304176, 25.3492321 ], [ 67.9286553, 25.3551477 ], [ 67.9275795, 25.3601736 ], [ 67.9241577, 25.3640373 ], [ 67.9217774, 25.3743364 ], [ 67.9218689, 25.3764665 ], [ 67.9240204, 25.3825255 ], [ 67.933931, 25.384552 ], [ 67.9356018, 25.3859581 ], [ 67.9372727, 25.3878605 ], [ 67.9407517, 25.3942497 ], [ 67.9432694, 25.4003078 ], [ 67.9461304, 25.4036159 ], [ 67.9486481, 25.4070686 ], [ 67.9519898, 25.4066551 ], [ 67.9565216, 25.4063243 ], [ 67.960138, 25.4073787 ], [ 67.9620377, 25.4078129 ], [ 67.9695908, 25.4082264 ], [ 67.9721771, 25.4088259 ], [ 67.9859558, 25.4176328 ], [ 67.9867798, 25.4185631 ], [ 67.991655, 25.4223047 ], [ 67.9959987, 25.4317388 ], [ 67.9979442, 25.4349426 ], [ 68.0044673, 25.4436856 ], [ 68.0138515, 25.4493899 ], [ 68.020695, 25.4498652 ], [ 68.0294841, 25.4518286 ], [ 68.03175, 25.4509813 ], [ 68.0386622, 25.4494312 ], [ 68.0417293, 25.4475712 ], [ 68.0439036, 25.4445743 ], [ 68.0565608, 25.44042 ], [ 68.0604289, 25.4367822 ], [ 68.0659678, 25.4339505 ], [ 68.0781673, 25.4269018 ], [ 68.0826304, 25.4244626 ], [ 68.0929301, 25.4185297 ], [ 68.0991557, 25.4152841 ], [ 68.1041682, 25.4109634 ], [ 68.1061137, 25.4078416 ], [ 68.1071895, 25.406291 ], [ 68.1103938, 25.4052779 ], [ 68.1121333, 25.4047197 ], [ 68.1192744, 25.3996543 ], [ 68.1215404, 25.392707 ], [ 68.1228908, 25.3862556 ], [ 68.1247676, 25.3824508 ], [ 68.1257289, 25.3772396 ], [ 68.1272166, 25.3749649 ], [ 68.1290019, 25.3712838 ], [ 68.1372188, 25.3648519 ], [ 68.1390269, 25.3625976 ], [ 68.1423686, 25.3544072 ], [ 68.1484798, 25.3452854 ], [ 68.149464, 25.3423481 ], [ 68.1506541, 25.3376317 ], [ 68.1534465, 25.3331634 ], [ 68.1583675, 25.325964 ], [ 68.1659319, 25.3182316 ], [ 68.1698458, 25.3114866 ], [ 68.1717226, 25.3084036 ], [ 68.1774218, 25.3040997 ], [ 68.1822054, 25.3028375 ], [ 68.188225, 25.3011821 ], [ 68.1944277, 25.3006441 ], [ 68.2013857, 25.298761 ], [ 68.2044985, 25.2986575 ], [ 68.2130129, 25.298492 ], [ 68.2183916, 25.2971676 ], [ 68.232239, 25.2965675 ], [ 68.235718, 25.2989679 ], [ 68.2431109, 25.302196 ], [ 68.246979, 25.3045549 ], [ 68.2480547, 25.3053205 ], [ 68.2491991, 25.3055274 ], [ 68.2513049, 25.3052171 ], [ 68.2563174, 25.3042032 ], [ 68.258446, 25.3038928 ], [ 68.2645342, 25.3055481 ], [ 68.2687228, 25.3026719 ], [ 68.2806475, 25.3004785 ], [ 68.2856142, 25.3006648 ], [ 68.2923663, 25.2963606 ], [ 68.3008807, 25.2956156 ], [ 68.3028033, 25.2960295 ], [ 68.3099215, 25.2957398 ], [ 68.3217318, 25.2955122 ], [ 68.3279803, 25.2956156 ], [ 68.3357851, 25.2963399 ], [ 68.349129, 25.2968572 ], [ 68.3473666, 25.2894281 ], [ 68.34565, 25.2842336 ], [ 68.3449862, 25.2796392 ], [ 68.3414554, 25.272429 ], [ 68.337427, 25.2640048 ], [ 68.3304004, 25.2556214 ], [ 68.3136462, 25.23713 ], [ 68.3027285, 25.225846 ], [ 68.2893389, 25.2106059 ], [ 68.2899569, 25.1906624 ], [ 68.3000506, 25.1839103 ], [ 68.31019, 25.1811348 ], [ 68.3202837, 25.1801198 ], [ 68.3259371, 25.178587 ], [ 68.343973, 25.1736571 ], [ 68.3548449, 25.168292 ], [ 68.361162, 25.1579132 ], [ 68.3635195, 25.1535004 ], [ 68.3639086, 25.1386863 ], [ 68.3625353, 25.1274761 ], [ 68.3605669, 25.1194357 ], [ 68.3476122, 25.1144205 ], [ 68.3395556, 25.1173011 ], [ 68.3326205, 25.1208863 ], [ 68.3269213, 25.1247408 ], [ 68.3227785, 25.1307916 ], [ 68.3209246, 25.1337341 ], [ 68.3144472, 25.1383962 ], [ 68.3098467, 25.1390178 ], [ 68.307535, 25.1390178 ], [ 68.3015612, 25.1376503 ], [ 68.2959765, 25.1353503 ], [ 68.2876452, 25.1306052 ], [ 68.2847613, 25.1284915 ], [ 68.2820833, 25.122254 ], [ 68.2798174, 25.1174255 ], [ 68.2770479, 25.1108973 ], [ 68.2770708, 25.0992286 ], [ 68.2771166, 25.0903156 ], [ 68.2759264, 25.0785828 ], [ 68.2726076, 25.0694818 ], [ 68.2728136, 25.0631376 ], [ 68.2702959, 25.0551136 ], [ 68.2688311, 25.0458865 ], [ 68.2661532, 25.033465 ], [ 68.262102, 25.0218926 ], [ 68.2588747, 25.0016072 ], [ 68.2541827, 24.98887 ], [ 68.2500399, 24.9792644 ], [ 68.2467898, 24.9687451 ], [ 68.2415419, 24.9588273 ], [ 68.2394884, 24.9549462 ], [ 68.2335604, 24.9505054 ], [ 68.2287539, 24.9510034 ], [ 68.223604, 24.9548217 ], [ 68.2190722, 24.9604452 ], [ 68.2158221, 24.9661307 ], [ 68.2078341, 24.9738908 ], [ 68.1898668, 24.9864635 ], [ 68.1796816, 24.9918988 ], [ 68.1705034, 24.9921685 ], [ 68.1604555, 24.991069 ], [ 68.154825, 24.9844719 ], [ 68.1470888, 24.9762145 ], [ 68.1353243, 24.9671889 ], [ 68.128641, 24.9586607 ], [ 68.1209734, 24.9470605 ], [ 68.1142901, 24.936746 ], [ 68.1103075, 24.9287345 ], [ 68.1089571, 24.9218642 ], [ 68.1103075, 24.8997353 ], [ 68.1112917, 24.8892923 ], [ 68.112253, 24.8778309 ], [ 68.1114255, 24.8741604 ], [ 68.1115629, 24.8700697 ], [ 68.1114026, 24.866311 ], [ 68.1142637, 24.8634452 ], [ 68.1165754, 24.8617631 ], [ 68.1198484, 24.8586688 ], [ 68.1204893, 24.8567166 ], [ 68.1197111, 24.8543491 ], [ 68.1155225, 24.8529161 ], [ 68.1111051, 24.8532899 ], [ 68.1027738, 24.8561559 ], [ 68.0948316, 24.8606002 ], [ 68.0838682, 24.8660826 ], [ 68.0795423, 24.8691767 ], [ 68.0712339, 24.8739528 ], [ 68.0662443, 24.8774412 ], [ 68.0623304, 24.8778358 ], [ 68.0580045, 24.8764861 ], [ 68.0538846, 24.8705265 ], [ 68.0514356, 24.8660203 ], [ 68.0494672, 24.8605586 ], [ 68.0465375, 24.8526876 ], [ 68.0391446, 24.8397066 ], [ 68.0346128, 24.8290092 ], [ 68.0288907, 24.819869 ], [ 68.0244733, 24.8113098 ], [ 68.0224592, 24.8048484 ], [ 68.0232602, 24.7998204 ], [ 68.0286161, 24.7911975 ], [ 68.035391, 24.7840078 ], [ 68.0470868, 24.7797478 ], [ 68.0514127, 24.778023 ], [ 68.0570172, 24.7727103 ], [ 68.0572918, 24.7650623 ], [ 68.0559414, 24.7604483 ], [ 68.0535839, 24.7582868 ], [ 68.0447033, 24.756146 ], [ 68.0344723, 24.7539635 ], [ 68.018565, 24.7520305 ], [ 68.0108288, 24.7495362 ], [ 68.0062512, 24.7469172 ], [ 68.0010784, 24.7399328 ], [ 67.9983547, 24.720994 ], [ 68.0003231, 24.7108894 ], [ 68.0025891, 24.6985797 ], [ 67.9916027, 24.6910312 ], [ 67.9808682, 24.6883277 ], [ 67.9766567, 24.6849379 ], [ 67.9673641, 24.6747888 ], [ 67.9627178, 24.6657828 ], [ 67.9607952, 24.6563809 ], [ 67.9594677, 24.6428385 ], [ 67.9593991, 24.6330188 ], [ 67.9647549, 24.6259656 ], [ 67.9724682, 24.6226781 ], [ 67.9836605, 24.6173722 ], [ 67.992976, 24.6099228 ], [ 68.0021542, 24.6015364 ], [ 68.0049465, 24.5981443 ], [ 68.0089062, 24.5924835 ], [ 68.0123623, 24.5885084 ], [ 68.0244244, 24.5731269 ], [ 68.0259024, 24.5683835 ], [ 68.0268048, 24.5654874 ], [ 68.0242871, 24.5571814 ], [ 68.0163677, 24.5552869 ], [ 68.0088146, 24.5565985 ], [ 67.9993618, 24.5568066 ], [ 67.9828137, 24.5567234 ], [ 67.9653958, 24.5533508 ], [ 67.9579571, 24.5513314 ], [ 67.9458492, 24.5445651 ], [ 67.9434689, 24.5372779 ], [ 67.943858, 24.5349251 ], [ 67.9471997, 24.5332593 ], [ 67.9522122, 24.5245555 ], [ 67.9546383, 24.512644 ], [ 67.9594448, 24.4958369 ], [ 67.9605206, 24.4853808 ], [ 67.9601168, 24.4814533 ], [ 67.9627636, 24.4795275 ], [ 67.9726055, 24.4730281 ], [ 67.979589, 24.472385 ], [ 67.9834113, 24.4691769 ], [ 67.9853339, 24.4660311 ], [ 67.9857459, 24.4604686 ], [ 67.9835257, 24.4440296 ], [ 67.9809394, 24.439112 ], [ 67.9796426, 24.4363081 ], [ 67.9779868, 24.4355071 ], [ 67.969335, 24.4369866 ], [ 67.958144, 24.4391252 ], [ 67.9508198, 24.4389585 ], [ 67.9437244, 24.4374374 ], [ 67.9401539, 24.4366039 ], [ 67.9323261, 24.4348118 ], [ 67.9274738, 24.4340825 ], [ 67.9223011, 24.4341658 ], [ 67.9170826, 24.4355828 ], [ 67.9081333, 24.4380417 ], [ 67.8983829, 24.4458347 ], [ 67.8884953, 24.4524396 ], [ 67.8838261, 24.4515854 ], [ 67.875243, 24.4484809 ], [ 67.8680332, 24.4456472 ], [ 67.8602512, 24.4405005 ], [ 67.853339, 24.4340825 ], [ 67.8473652, 24.4251425 ], [ 67.8449848, 24.4197449 ], [ 67.8454883, 24.4131591 ], [ 67.8442524, 24.4069481 ], [ 67.8462208, 24.3751589 ], [ 67.8496769, 24.3644217 ], [ 67.8511417, 24.354476 ], [ 67.8505466, 24.3504725 ], [ 67.8397892, 24.3492214 ], [ 67.8281849, 24.3488043 ], [ 67.8218677, 24.3494299 ], [ 67.8156422, 24.3518487 ], [ 67.8092106, 24.3559356 ], [ 67.8028477, 24.3576871 ], [ 67.794585, 24.3561441 ], [ 67.7878559, 24.3518487 ], [ 67.7703007, 24.3438414 ], [ 67.7662494, 24.3379815 ], [ 67.7671879, 24.3319128 ], [ 67.7692707, 24.3296813 ], [ 67.7748325, 24.3244256 ], [ 67.7869633, 24.3085529 ], [ 67.799918, 24.2831859 ], [ 67.8086384, 24.2706048 ], [ 67.8128269, 24.2625714 ], [ 67.8156422, 24.2521169 ], [ 67.8123463, 24.2460023 ], [ 67.807082, 24.2433519 ], [ 67.7999866, 24.2433519 ], [ 67.7967594, 24.2449797 ], [ 67.7948368, 24.2477971 ], [ 67.7945392, 24.2513865 ], [ 67.7945621, 24.2545376 ], [ 67.7936008, 24.2590032 ], [ 67.7897327, 24.2679757 ], [ 67.7815159, 24.2784081 ], [ 67.7770756, 24.2778031 ], [ 67.7730015, 24.2755915 ], [ 67.7664554, 24.269791 ], [ 67.7520588, 24.2608186 ], [ 67.7454899, 24.255581 ], [ 67.7430179, 24.2479014 ], [ 67.7413471, 24.2376544 ], [ 67.7356708, 24.2263003 ], [ 67.735109, 24.2251428 ], [ 67.728072, 24.2106449 ], [ 67.723975, 24.1991214 ], [ 67.7273395, 24.1883693 ], [ 67.7347095, 24.181521 ], [ 67.7374103, 24.1779296 ], [ 67.7377766, 24.1709762 ], [ 67.7329014, 24.1670504 ], [ 67.7281406, 24.1658393 ], [ 67.7213886, 24.1662778 ], [ 67.7183903, 24.1675934 ], [ 67.7102192, 24.1739205 ], [ 67.7020481, 24.1812495 ], [ 67.6922291, 24.1860518 ], [ 67.6869419, 24.1868034 ], [ 67.6792286, 24.1835672 ], [ 67.6751545, 24.1773449 ], [ 67.6709888, 24.1686166 ], [ 67.6666401, 24.1569848 ], [ 67.6635158, 24.1524529 ], [ 67.6603916, 24.1479209 ], [ 67.6441639, 24.1467931 ], [ 67.6316898, 24.1440571 ], [ 67.6336124, 24.1297077 ], [ 67.641692, 24.118908 ], [ 67.6533878, 24.1113038 ], [ 67.657027, 24.1024247 ], [ 67.6528385, 24.093733 ], [ 67.6510532, 24.0830974 ], [ 67.6515453, 24.0801472 ], [ 67.6496914, 24.0764276 ], [ 67.6487072, 24.0706808 ], [ 67.6456173, 24.0633872 ], [ 67.6398062, 24.061671 ], [ 67.6284079, 24.0686094 ], [ 67.6213812, 24.0716814 ], [ 67.607923, 24.0745652 ], [ 67.5957694, 24.0726427 ], [ 67.5824713, 24.072162 ], [ 67.5529913, 24.0735204 ], [ 67.5419565, 24.0700591 ], [ 67.5294138, 24.06822 ], [ 67.5184274, 24.0641448 ], [ 67.5072122, 24.0565164 ], [ 67.4951044, 24.044561 ], [ 67.4875513, 24.0369524 ], [ 67.4748941, 24.0265839 ], [ 67.4679132, 24.0130367 ], [ 67.4612985, 24.0051335 ], [ 67.4432294, 23.9905418 ], [ 67.3759171, 23.9570756 ], [ 67.3185036, 23.9073125 ], [ 67.237655, 23.8581288 ], [ 67.2044766, 23.8411897 ], [ 67.1987705, 23.8480857 ], [ 67.1930645, 23.8549817 ], [ 67.1873584, 23.8618776 ], [ 67.1816523, 23.8687736 ], [ 67.1759462, 23.8756696 ], [ 67.1702401, 23.8825655 ], [ 67.164534, 23.8894615 ], [ 67.1588279, 23.8963575 ], [ 67.1531218, 23.9032535 ], [ 67.1474157, 23.9101494 ], [ 67.1417096, 23.9170454 ], [ 67.1360035, 23.9239414 ], [ 67.1302974, 23.9308374 ], [ 67.1245912, 23.9377334 ], [ 67.1188851, 23.9446293 ], [ 67.113179, 23.9515253 ], [ 67.1074728, 23.9584213 ], [ 67.1017667, 23.9653173 ], [ 67.0960605, 23.9722133 ], [ 67.0903544, 23.9791093 ], [ 67.0846482, 23.9860053 ], [ 67.0789421, 23.9929013 ], [ 67.0732359, 23.9997973 ], [ 67.0675297, 24.0066933 ], [ 67.0618235, 24.0135893 ], [ 67.0561173, 24.0204853 ], [ 67.0504112, 24.0273813 ], [ 67.044705, 24.0342773 ], [ 67.0389988, 24.0411733 ], [ 67.0332925, 24.0480693 ], [ 67.0275863, 24.0549653 ], [ 67.0218801, 24.0618613 ], [ 67.0161739, 24.0687573 ], [ 67.0104677, 24.0756533 ], [ 67.0047615, 24.0825493 ], [ 66.9990552, 24.0894453 ], [ 66.993349, 24.0963414 ], [ 66.9876427, 24.1032374 ], [ 66.9819365, 24.1101334 ], [ 66.9762302, 24.1170294 ], [ 66.970524, 24.1239254 ], [ 66.9648177, 24.1308214 ], [ 66.9591115, 24.1377175 ], [ 66.9534052, 24.1446135 ], [ 66.9476989, 24.1515095 ], [ 66.9419926, 24.1584055 ], [ 66.9362863, 24.1653016 ], [ 66.93058, 24.1721976 ], [ 66.9248737, 24.1790936 ], [ 66.9191674, 24.1859897 ], [ 66.9134611, 24.1928857 ], [ 66.9077548, 24.1997817 ], [ 66.9020485, 24.2066778 ], [ 66.8963422, 24.2135738 ], [ 66.8906359, 24.2204698 ], [ 66.8849295, 24.2273659 ], [ 66.8792232, 24.2342619 ], [ 66.8735169, 24.241158 ], [ 66.8678105, 24.248054 ], [ 66.8621041, 24.2549501 ], [ 66.8563978, 24.2618461 ], [ 66.8506914, 24.2687422 ], [ 66.8449851, 24.2756382 ], [ 66.8392787, 24.2825343 ], [ 66.8335723, 24.2894303 ], [ 66.827866, 24.2963264 ], [ 66.8221596, 24.3032224 ], [ 66.8164532, 24.3101185 ], [ 66.8107468, 24.3170145 ], [ 66.8050404, 24.3239106 ], [ 66.799334, 24.3308067 ], [ 66.7936276, 24.3377027 ], [ 66.7879212, 24.3445988 ], [ 66.7822147, 24.3514949 ], [ 66.7765083, 24.3583909 ], [ 66.7708019, 24.365287 ], [ 66.7650955, 24.3721831 ], [ 66.759389, 24.3790791 ], [ 66.7536826, 24.3859752 ], [ 66.7479761, 24.3928713 ], [ 66.7422697, 24.3997674 ], [ 66.7365632, 24.4066634 ], [ 66.7308568, 24.4135595 ], [ 66.7251503, 24.4204556 ], [ 66.7194438, 24.4273517 ], [ 66.9227978, 24.5990607 ] ] ], [ [ [ 68.3548664, 24.5271411 ], [ 68.3576989, 24.5437918 ], [ 68.357377, 24.5518528 ], [ 68.3590507, 24.5607135 ], [ 68.3589863, 24.5658852 ], [ 68.3591365, 24.5729106 ], [ 68.3593726, 24.574257 ], [ 68.3595442, 24.5806185 ], [ 68.3601021, 24.5825698 ], [ 68.3609175, 24.5904332 ], [ 68.36169, 24.5927355 ], [ 68.3642649, 24.6021006 ], [ 68.3675479, 24.6084996 ], [ 68.3681273, 24.6105675 ], [ 68.3680573, 24.6146706 ], [ 68.3701387, 24.6152559 ], [ 68.372027, 24.6152559 ], [ 68.373529, 24.6152559 ], [ 68.3757177, 24.6152559 ], [ 68.3779278, 24.615724 ], [ 68.3818117, 24.6217713 ], [ 68.3822623, 24.6231172 ], [ 68.3830991, 24.6250874 ], [ 68.384923, 24.6274281 ], [ 68.3860388, 24.6284424 ], [ 68.3877983, 24.6293786 ], [ 68.3887639, 24.6311731 ], [ 68.3891064, 24.6335719 ], [ 68.3887202, 24.6350737 ], [ 68.3868534, 24.6372192 ], [ 68.383463, 24.6394817 ], [ 68.380974, 24.6414126 ], [ 68.3740217, 24.6430314 ], [ 68.3684641, 24.6457033 ], [ 68.3644515, 24.6480241 ], [ 68.363207, 24.6489992 ], [ 68.3623058, 24.65093 ], [ 68.3619625, 24.6517881 ], [ 68.3609969, 24.6517881 ], [ 68.3593875, 24.6510275 ], [ 68.358143, 24.6508325 ], [ 68.3577138, 24.651164 ], [ 68.3576924, 24.6519441 ], [ 68.3574134, 24.6545768 ], [ 68.3578426, 24.6555909 ], [ 68.3605892, 24.6571705 ], [ 68.3621556, 24.6582626 ], [ 68.3643872, 24.6629037 ], [ 68.3657819, 24.6635277 ], [ 68.3665115, 24.6640932 ], [ 68.3674556, 24.6638787 ], [ 68.367756, 24.6628257 ], [ 68.3677989, 24.6594911 ], [ 68.370052, 24.6594716 ], [ 68.3713824, 24.6599396 ], [ 68.3746654, 24.6625137 ], [ 68.3759743, 24.6685197 ], [ 68.375867, 24.6706061 ], [ 68.3748371, 24.6746813 ], [ 68.3736998, 24.6769236 ], [ 68.3752662, 24.6786784 ], [ 68.3760602, 24.6797118 ], [ 68.3754593, 24.6833383 ], [ 68.3758885, 24.6854635 ], [ 68.3738071, 24.6900256 ], [ 68.3722407, 24.6913319 ], [ 68.3721549, 24.6941782 ], [ 68.3723694, 24.6950165 ], [ 68.3723265, 24.6965177 ], [ 68.3701593, 24.7005336 ], [ 68.3706743, 24.7013913 ], [ 68.3727128, 24.7046663 ], [ 68.3735281, 24.7061088 ], [ 68.3752662, 24.7073954 ], [ 68.3762747, 24.7102219 ], [ 68.3745796, 24.7119568 ], [ 68.3741719, 24.7135162 ], [ 68.3734638, 24.7148221 ], [ 68.3734638, 24.7161866 ], [ 68.3734852, 24.7180578 ], [ 68.3738929, 24.7207281 ], [ 68.37385, 24.7227942 ], [ 68.3729917, 24.7239441 ], [ 68.3709747, 24.7262245 ], [ 68.368786, 24.7287193 ], [ 68.3672625, 24.7308436 ], [ 68.3673269, 24.7327146 ], [ 68.3713824, 24.7393993 ], [ 68.3705455, 24.7413481 ], [ 68.3697731, 24.7444272 ], [ 68.3692581, 24.7479739 ], [ 68.3691508, 24.7503318 ], [ 68.3700735, 24.7523194 ], [ 68.3723051, 24.7551254 ], [ 68.3748371, 24.758321 ], [ 68.3795363, 24.7613607 ], [ 68.3855552, 24.7659249 ], [ 68.3879907, 24.7684325 ], [ 68.3931386, 24.7750577 ], [ 68.3997261, 24.7790905 ], [ 68.4086525, 24.7802205 ], [ 68.4161842, 24.7803958 ], [ 68.4390795, 24.7821687 ], [ 68.4498341, 24.7829326 ], [ 68.4521301, 24.7832053 ], [ 68.4534819, 24.7838482 ], [ 68.4545763, 24.7843547 ], [ 68.4554561, 24.7852119 ], [ 68.4559925, 24.7864976 ], [ 68.4557565, 24.7885431 ], [ 68.4554131, 24.7893613 ], [ 68.4546407, 24.7922833 ], [ 68.4532674, 24.7962377 ], [ 68.4529026, 24.79877 ], [ 68.4533317, 24.8020229 ], [ 68.4543403, 24.8060744 ], [ 68.4550698, 24.808178 ], [ 68.4570654, 24.8133784 ], [ 68.4598763, 24.8202145 ], [ 68.460799, 24.8245575 ], [ 68.4608848, 24.8273229 ], [ 68.4603269, 24.8328925 ], [ 68.4597657, 24.8398998 ], [ 68.459079, 24.844651 ], [ 68.459358, 24.8470849 ], [ 68.4590361, 24.8554184 ], [ 68.4598515, 24.8636929 ], [ 68.4597228, 24.8680733 ], [ 68.4628985, 24.8732711 ], [ 68.4654734, 24.8731543 ], [ 68.4667609, 24.8716943 ], [ 68.4694002, 24.8700395 ], [ 68.4706662, 24.8691246 ], [ 68.4724257, 24.8669247 ], [ 68.4723828, 24.8619017 ], [ 68.4716962, 24.8590203 ], [ 68.4714387, 24.8537245 ], [ 68.4751938, 24.8452351 ], [ 68.4811804, 24.8394714 ], [ 68.4883902, 24.8490515 ], [ 68.489982, 24.8528818 ], [ 68.4932007, 24.8606502 ], [ 68.4989299, 24.8708517 ], [ 68.5007967, 24.8725259 ], [ 68.5065474, 24.8723312 ], [ 68.5132414, 24.8699835 ], [ 68.5208374, 24.8690296 ], [ 68.5318022, 24.8677642 ], [ 68.5405784, 24.8630139 ], [ 68.5463449, 24.8585668 ], [ 68.5513016, 24.8537188 ], [ 68.5545202, 24.854926 ], [ 68.5629531, 24.8553738 ], [ 68.5689612, 24.8566198 ], [ 68.5773297, 24.8566004 ], [ 68.5861274, 24.8553932 ], [ 68.5932728, 24.8548675 ], [ 68.5985299, 24.8520249 ], [ 68.6070057, 24.847897 ], [ 68.6124345, 24.8518302 ], [ 68.6141296, 24.8545755 ], [ 68.6186572, 24.8629085 ], [ 68.624365, 24.8673084 ], [ 68.6269184, 24.8690021 ], [ 68.6329695, 24.8746087 ], [ 68.6391707, 24.8781906 ], [ 68.6469932, 24.8794595 ], [ 68.6495252, 24.8801019 ], [ 68.6516495, 24.8828661 ], [ 68.655984, 24.88491 ], [ 68.6675282, 24.8836447 ], [ 68.6717124, 24.8829634 ], [ 68.6781926, 24.879479 ], [ 68.6812396, 24.8757025 ], [ 68.6795874, 24.873347 ], [ 68.6742874, 24.8712055 ], [ 68.6673351, 24.8693366 ], [ 68.6698456, 24.8636324 ], [ 68.6697352, 24.8604182 ], [ 68.6634052, 24.8569331 ], [ 68.6588347, 24.8550445 ], [ 68.6487281, 24.8516372 ], [ 68.639394, 24.8493202 ], [ 68.6434281, 24.843654 ], [ 68.6501443, 24.8407721 ], [ 68.6602294, 24.8346576 ], [ 68.6635124, 24.8307823 ], [ 68.669306, 24.8266148 ], [ 68.6712158, 24.8236157 ], [ 68.6719239, 24.8193311 ], [ 68.6658077, 24.8142709 ], [ 68.6625247, 24.8038116 ], [ 68.653491, 24.7961954 ], [ 68.6608724, 24.78628 ], [ 68.6679105, 24.783689 ], [ 68.6764292, 24.7845462 ], [ 68.6870293, 24.7817798 ], [ 68.6911063, 24.780494 ], [ 68.6973719, 24.7806693 ], [ 68.6984234, 24.7888125 ], [ 68.69808, 24.7931955 ], [ 68.7029509, 24.7969551 ], [ 68.7077789, 24.7994095 ], [ 68.7144737, 24.7967798 ], [ 68.7182288, 24.7960006 ], [ 68.7181644, 24.7938578 ], [ 68.7162547, 24.788832 ], [ 68.7187438, 24.7836549 ], [ 68.7235074, 24.781921 ], [ 68.7293653, 24.7843173 ], [ 68.7303738, 24.7834601 ], [ 68.738678, 24.7847848 ], [ 68.7471537, 24.7829146 ], [ 68.7446003, 24.7888953 ], [ 68.7441282, 24.7907654 ], [ 68.7453727, 24.7935705 ], [ 68.74651, 24.7963366 ], [ 68.7446217, 24.8024335 ], [ 68.7414031, 24.8122697 ], [ 68.7389784, 24.8161066 ], [ 68.7378626, 24.8177815 ], [ 68.7368111, 24.8213456 ], [ 68.7363605, 24.8321151 ], [ 68.7360601, 24.8381518 ], [ 68.7358455, 24.8421826 ], [ 68.7376265, 24.8503411 ], [ 68.7382917, 24.853398 ], [ 68.7392788, 24.8541768 ], [ 68.7395792, 24.8555592 ], [ 68.7393217, 24.8588107 ], [ 68.74018, 24.8599204 ], [ 68.742825, 24.8653627 ], [ 68.7428465, 24.8664919 ], [ 68.7428465, 24.8688864 ], [ 68.7436404, 24.8711836 ], [ 68.7489619, 24.8701324 ], [ 68.7511506, 24.8682245 ], [ 68.7592616, 24.8678546 ], [ 68.7645187, 24.8666476 ], [ 68.7705269, 24.8649928 ], [ 68.7772002, 24.8630848 ], [ 68.7804551, 24.8631669 ], [ 68.7851329, 24.8694941 ], [ 68.7922569, 24.8893692 ], [ 68.7930293, 24.8960454 ], [ 68.7931581, 24.9033246 ], [ 68.7919135, 24.905991 ], [ 68.7880297, 24.9134058 ], [ 68.7861506, 24.9182787 ], [ 68.7865369, 24.9231047 ], [ 68.7870089, 24.9266268 ], [ 68.7896911, 24.9350133 ], [ 68.7906567, 24.9386129 ], [ 68.7894766, 24.941653 ], [ 68.7894766, 24.9435014 ], [ 68.7904422, 24.9488322 ], [ 68.790528, 24.9525287 ], [ 68.7909357, 24.9564779 ], [ 68.7916867, 24.9576841 ], [ 68.7921802, 24.959396 ], [ 68.7927381, 24.96068 ], [ 68.7924377, 24.9622168 ], [ 68.7899272, 24.9646484 ], [ 68.7900559, 24.96566 ], [ 68.7907426, 24.9663213 ], [ 68.7895839, 24.9671384 ], [ 68.7850992, 24.9688113 ], [ 68.7844899, 24.9688581 ], [ 68.7802927, 24.9691808 ], [ 68.7758724, 24.9698033 ], [ 68.7748854, 24.9701923 ], [ 68.7725036, 24.9709121 ], [ 68.7698643, 24.9709121 ], [ 68.7668816, 24.9715734 ], [ 68.7654869, 24.9733824 ], [ 68.7637059, 24.9758138 ], [ 68.7621824, 24.9782647 ], [ 68.7573974, 24.984372 ], [ 68.7562386, 24.9865115 ], [ 68.7541358, 24.9885536 ], [ 68.7503163, 24.991257 ], [ 68.7482564, 24.9926379 ], [ 68.7458746, 24.9925212 ], [ 68.7444584, 24.9924239 ], [ 68.7414328, 24.9922684 ], [ 68.7393514, 24.9925406 ], [ 68.7326996, 24.9936297 ], [ 68.7309171, 24.9944813 ], [ 68.7300588, 24.9955315 ], [ 68.7284709, 24.9984098 ], [ 68.725381, 25.002941 ], [ 68.7227847, 25.0049829 ], [ 68.7187935, 25.0072192 ], [ 68.7137081, 25.0085415 ], [ 68.7118842, 25.0080359 ], [ 68.7105109, 25.0074963 ], [ 68.7078287, 25.0091298 ], [ 68.7026788, 25.0097715 ], [ 68.7000181, 25.0116771 ], [ 68.6953188, 25.0125522 ], [ 68.6888386, 25.0204078 ], [ 68.6823369, 25.027563 ], [ 68.6748053, 25.0311599 ], [ 68.6675526, 25.0331236 ], [ 68.6664563, 25.031152 ], [ 68.6600405, 25.0351571 ], [ 68.6572725, 25.0360903 ], [ 68.6546975, 25.0349238 ], [ 68.6512858, 25.0330379 ], [ 68.6483461, 25.0321241 ], [ 68.6475092, 25.03366 ], [ 68.63442, 25.0417282 ], [ 68.6251074, 25.0455579 ], [ 68.6201292, 25.0487266 ], [ 68.6145288, 25.0527505 ], [ 68.6137563, 25.0578628 ], [ 68.611737, 25.0612995 ], [ 68.6162431, 25.0634959 ], [ 68.6224229, 25.0632821 ], [ 68.6285169, 25.0642151 ], [ 68.6304481, 25.0655951 ], [ 68.6350615, 25.0743414 ], [ 68.636337, 25.0782047 ], [ 68.6396844, 25.0834908 ], [ 68.6430104, 25.0853565 ], [ 68.6473019, 25.0892626 ], [ 68.6492116, 25.0932075 ], [ 68.6525376, 25.0983181 ], [ 68.6559064, 25.1025541 ], [ 68.6571295, 25.1068289 ], [ 68.6615069, 25.1124441 ], [ 68.6661417, 25.1184282 ], [ 68.6682017, 25.1207596 ], [ 68.6735446, 25.1266656 ], [ 68.6780507, 25.1347276 ], [ 68.6828787, 25.1391372 ], [ 68.6849387, 25.1426725 ], [ 68.6892731, 25.1566186 ], [ 68.6906249, 25.1620568 ], [ 68.6879213, 25.164601 ], [ 68.6844237, 25.1647175 ], [ 68.6816985, 25.164232 ], [ 68.6779811, 25.1610116 ], [ 68.6687114, 25.1553792 ], [ 68.6658361, 25.1501933 ], [ 68.6602356, 25.1450654 ], [ 68.6510947, 25.1473186 ], [ 68.6394646, 25.1513781 ], [ 68.6311819, 25.1531067 ], [ 68.6174061, 25.1592442 ], [ 68.6148956, 25.1612835 ], [ 68.6199054, 25.1669113 ], [ 68.6257633, 25.1710479 ], [ 68.6280593, 25.1733589 ], [ 68.6365351, 25.1770486 ], [ 68.6617907, 25.1775923 ], [ 68.6614474, 25.1825052 ], [ 68.6619195, 25.1859034 ], [ 68.6616405, 25.1889131 ], [ 68.6614828, 25.1929717 ], [ 68.6632638, 25.1944668 ], [ 68.6636929, 25.2058248 ], [ 68.667784, 25.2075949 ], [ 68.6803796, 25.2071678 ], [ 68.6849716, 25.2054787 ], [ 68.6932971, 25.2046439 ], [ 68.7030389, 25.2061388 ], [ 68.7006357, 25.2088762 ], [ 68.7000134, 25.214312 ], [ 68.6904862, 25.2207765 ], [ 68.6823108, 25.2310257 ], [ 68.6855509, 25.2357617 ], [ 68.6857011, 25.2384597 ], [ 68.687289, 25.243933 ], [ 68.6882546, 25.2514632 ], [ 68.6902072, 25.2531905 ], [ 68.693104, 25.2620203 ], [ 68.6975672, 25.2705391 ], [ 68.7017944, 25.2795617 ], [ 68.7068369, 25.285072 ], [ 68.7133904, 25.2834344 ], [ 68.7288829, 25.2785256 ], [ 68.7359424, 25.2773808 ], [ 68.7510057, 25.2765076 ], [ 68.7561127, 25.2794957 ], [ 68.7637945, 25.2810091 ], [ 68.7803813, 25.2802136 ], [ 68.798513, 25.2791271 ], [ 68.8067957, 25.2761972 ], [ 68.806381, 25.2734066 ], [ 68.8041065, 25.2670614 ], [ 68.7970469, 25.2528951 ], [ 68.7941716, 25.2466071 ], [ 68.7916181, 25.238436 ], [ 68.7887428, 25.2297209 ], [ 68.7944076, 25.2272945 ], [ 68.8083122, 25.229158 ], [ 68.8225501, 25.229908 ], [ 68.8339012, 25.2308397 ], [ 68.8439648, 25.2329943 ], [ 68.8530629, 25.2349353 ], [ 68.8633411, 25.23971 ], [ 68.8711731, 25.2415539 ], [ 68.8816659, 25.2410492 ], [ 68.9002372, 25.2409969 ], [ 68.9030696, 25.2429572 ], [ 68.9010311, 25.2495947 ], [ 68.8989712, 25.2556497 ], [ 68.89807, 25.2579397 ], [ 68.8959886, 25.2606371 ], [ 68.8954521, 25.2627718 ], [ 68.895774, 25.2639361 ], [ 68.8993399, 25.2657033 ], [ 68.9049833, 25.2667706 ], [ 68.9108841, 25.2657033 ], [ 68.9154332, 25.2668676 ], [ 68.9227717, 25.2697395 ], [ 68.926162, 25.2715829 ], [ 68.9273636, 25.2734262 ], [ 68.9281361, 25.2752502 ], [ 68.9293592, 25.2781219 ], [ 68.9390399, 25.2791728 ], [ 68.940542, 25.2835577 ], [ 68.9455631, 25.2882724 ], [ 68.9479449, 25.2909303 ], [ 68.9516999, 25.2949075 ], [ 68.9528157, 25.2981667 ], [ 68.9610555, 25.3007274 ], [ 68.9635017, 25.3096702 ], [ 68.9644458, 25.315567 ], [ 68.9757111, 25.3142674 ], [ 68.975791, 25.3126188 ], [ 68.9764192, 25.2996605 ], [ 68.977256, 25.2906393 ], [ 68.9774921, 25.2839458 ], [ 68.9783289, 25.2729831 ], [ 68.9793803, 25.256023 ], [ 68.9796378, 25.2486871 ], [ 68.9809253, 25.2339363 ], [ 68.9814188, 25.2225227 ], [ 68.9832748, 25.1956206 ], [ 68.9842189, 25.1809799 ], [ 68.98535, 25.1542417 ], [ 68.9854849, 25.1510523 ], [ 68.9860428, 25.1448367 ], [ 68.9872444, 25.1424669 ], [ 68.9888108, 25.1393784 ], [ 68.9917291, 25.1367948 ], [ 69.0122426, 25.1218168 ], [ 69.012028, 25.1100429 ], [ 69.0250958, 25.1041118 ], [ 69.0326274, 25.0998952 ], [ 69.0383137, 25.0970777 ], [ 69.0391291, 25.0963198 ], [ 69.0404809, 25.0944155 ], [ 69.0432919, 25.0912285 ], [ 69.0436566, 25.0894018 ], [ 69.0475834, 25.0844657 ], [ 69.04827, 25.0764393 ], [ 69.0494405, 25.0721763 ], [ 69.0515648, 25.0695136 ], [ 69.0558134, 25.0648877 ], [ 69.0575944, 25.0633133 ], [ 69.0626584, 25.0560435 ], [ 69.0657268, 25.049376 ], [ 69.066628, 25.0410556 ], [ 69.0665637, 25.0391699 ], [ 69.0673362, 25.0363898 ], [ 69.0701256, 25.0321903 ], [ 69.0713702, 25.0296434 ], [ 69.0734087, 25.0277574 ], [ 69.0777431, 25.0247243 ], [ 69.0808974, 25.0194162 ], [ 69.0819703, 25.0176079 ], [ 69.0876137, 25.011366 ], [ 69.0961323, 25.0047155 ], [ 69.0980421, 24.9992898 ], [ 69.1020547, 24.9954586 ], [ 69.1100798, 24.9909271 ], [ 69.1245374, 24.9814851 ], [ 69.1282759, 24.9790434 ], [ 69.1307541, 24.9714319 ], [ 69.1358395, 24.9634953 ], [ 69.1438862, 24.9549357 ], [ 69.1483494, 24.9486517 ], [ 69.1523619, 24.9409472 ], [ 69.1562458, 24.9312379 ], [ 69.1650863, 24.9331254 ], [ 69.1721888, 24.9331837 ], [ 69.1780468, 24.9344485 ], [ 69.1854068, 24.9333783 ], [ 69.1902347, 24.9339426 ], [ 69.1951915, 24.9348376 ], [ 69.2140885, 24.9339697 ], [ 69.2269631, 24.9329773 ], [ 69.2304178, 24.9328022 ], [ 69.2381855, 24.9335027 ], [ 69.2505451, 24.933814 ], [ 69.2637845, 24.9341448 ], [ 69.2765733, 24.9342615 ], [ 69.2809507, 24.9346701 ], [ 69.2880961, 24.9353706 ], [ 69.292452, 24.9346507 ], [ 69.2938253, 24.9323547 ], [ 69.2955633, 24.9290273 ], [ 69.2926451, 24.9262252 ], [ 69.2935892, 24.9199593 ], [ 69.2997261, 24.913226 ], [ 69.300799, 24.907193 ], [ 69.3004437, 24.8980188 ], [ 69.2982121, 24.8918293 ], [ 69.2935772, 24.8817464 ], [ 69.2928691, 24.8719546 ], [ 69.2928906, 24.8637002 ], [ 69.2969675, 24.8587745 ], [ 69.2987914, 24.8552894 ], [ 69.3011732, 24.8488835 ], [ 69.3003578, 24.8412117 ], [ 69.2985125, 24.8340457 ], [ 69.2982121, 24.8256718 ], [ 69.2964955, 24.8152134 ], [ 69.2962218, 24.804017 ], [ 69.2971874, 24.7968098 ], [ 69.2977668, 24.7901672 ], [ 69.297638, 24.7724973 ], [ 69.2870594, 24.7688344 ], [ 69.2840553, 24.7674511 ], [ 69.2779828, 24.7649961 ], [ 69.2643572, 24.7598326 ], [ 69.2597223, 24.7595793 ], [ 69.2599583, 24.7487451 ], [ 69.2931589, 24.7481747 ], [ 69.2927298, 24.7395612 ], [ 69.2925152, 24.7357999 ], [ 69.2890529, 24.7340394 ], [ 69.2840748, 24.7327336 ], [ 69.2771439, 24.7302779 ], [ 69.2695908, 24.7286797 ], [ 69.2610292, 24.7275688 ], [ 69.257832, 24.7252884 ], [ 69.2555146, 24.7228131 ], [ 69.2539696, 24.719714 ], [ 69.2509012, 24.7126385 ], [ 69.2488413, 24.7101434 ], [ 69.2430906, 24.7064787 ], [ 69.2395286, 24.7045098 ], [ 69.2377476, 24.7033597 ], [ 69.2318682, 24.699032 ], [ 69.2297439, 24.6961077 ], [ 69.2248516, 24.6869057 ], [ 69.2221908, 24.6823044 ], [ 69.2199163, 24.6808811 ], [ 69.2177491, 24.6804132 ], [ 69.2158179, 24.6798868 ], [ 69.2146806, 24.6793018 ], [ 69.219573, 24.6773521 ], [ 69.224637, 24.6763382 ], [ 69.2304091, 24.6749733 ], [ 69.2412667, 24.671132 ], [ 69.2512445, 24.6654187 ], [ 69.2575745, 24.6626497 ], [ 69.2596774, 24.6606801 ], [ 69.2604069, 24.657287 ], [ 69.2582826, 24.6551418 ], [ 69.2539053, 24.6543813 ], [ 69.2506866, 24.6542643 ], [ 69.2488842, 24.6531917 ], [ 69.2480688, 24.6509294 ], [ 69.2450003, 24.6485502 ], [ 69.2413954, 24.6451177 ], [ 69.2411594, 24.6402418 ], [ 69.2407088, 24.6348391 ], [ 69.242876, 24.6271931 ], [ 69.2437772, 24.6150403 ], [ 69.2395286, 24.6053836 ], [ 69.2365031, 24.6013647 ], [ 69.2337136, 24.6015598 ], [ 69.2316322, 24.6043692 ], [ 69.2293362, 24.6098122 ], [ 69.2257313, 24.615372 ], [ 69.2239718, 24.6180055 ], [ 69.2195515, 24.6254961 ], [ 69.2182855, 24.6284414 ], [ 69.2176633, 24.6295533 ], [ 69.2156033, 24.6305871 ], [ 69.2142729, 24.630275 ], [ 69.2124705, 24.6290071 ], [ 69.2107968, 24.626842 ], [ 69.2094879, 24.6260617 ], [ 69.2074923, 24.6259447 ], [ 69.2053895, 24.6260032 ], [ 69.2034154, 24.6247938 ], [ 69.2032437, 24.6226676 ], [ 69.2044668, 24.6191564 ], [ 69.206398, 24.6154305 ], [ 69.213479, 24.6092074 ], [ 69.2174701, 24.6052861 ], [ 69.2235427, 24.6006038 ], [ 69.2316751, 24.5946336 ], [ 69.2353658, 24.5900094 ], [ 69.2348079, 24.5863021 ], [ 69.2320614, 24.5817947 ], [ 69.2295723, 24.5789848 ], [ 69.2273621, 24.5775799 ], [ 69.2213969, 24.5759017 ], [ 69.2183499, 24.5738332 ], [ 69.2157964, 24.5715695 ], [ 69.2155207, 24.5703598 ], [ 69.2150669, 24.5683691 ], [ 69.2150669, 24.5671006 ], [ 69.2154145, 24.5670351 ], [ 69.2180709, 24.5665347 ], [ 69.2251305, 24.5626316 ], [ 69.2301087, 24.5582794 ], [ 69.2316107, 24.5546688 ], [ 69.2315389, 24.5532135 ], [ 69.2314605, 24.5516241 ], [ 69.2275767, 24.549809 ], [ 69.2252378, 24.5489502 ], [ 69.2231993, 24.5465885 ], [ 69.2222684, 24.5439789 ], [ 69.2221479, 24.5436411 ], [ 69.2213969, 24.5401082 ], [ 69.2171697, 24.5373364 ], [ 69.2128997, 24.5346621 ], [ 69.2060332, 24.5295282 ], [ 69.2016344, 24.5321635 ], [ 69.2006259, 24.5346036 ], [ 69.197021, 24.5347012 ], [ 69.1920639, 24.5344736 ], [ 69.1893388, 24.5300033 ], [ 69.1809274, 24.5275241 ], [ 69.1786314, 24.5252206 ], [ 69.1749836, 24.5209453 ], [ 69.1702415, 24.5189344 ], [ 69.1639329, 24.5159865 ], [ 69.1610147, 24.5137218 ], [ 69.1550065, 24.5096413 ], [ 69.1526033, 24.5085479 ], [ 69.1495134, 24.5082746 ], [ 69.1458656, 24.5077474 ], [ 69.1406943, 24.5065369 ], [ 69.1357161, 24.5033348 ], [ 69.1328193, 24.4994493 ], [ 69.127884, 24.4950168 ], [ 69.1232706, 24.4921269 ], [ 69.1196443, 24.4926541 ], [ 69.1169192, 24.492205 ], [ 69.1139366, 24.4904476 ], [ 69.1098811, 24.4878895 ], [ 69.1088511, 24.4860344 ], [ 69.1090228, 24.4829294 ], [ 69.1088082, 24.4763287 ], [ 69.107113, 24.4731844 ], [ 69.1044094, 24.4717197 ], [ 69.104066, 24.4708799 ], [ 69.1052677, 24.46838 ], [ 69.1069414, 24.4656847 ], [ 69.1068555, 24.4620324 ], [ 69.1051818, 24.4602941 ], [ 69.1019632, 24.4602941 ], [ 69.0991951, 24.4610753 ], [ 69.096749, 24.4625597 ], [ 69.0945817, 24.4626965 ], [ 69.0914918, 24.4620519 ], [ 69.0898181, 24.4611144 ], [ 69.0859772, 24.4578135 ], [ 69.0864922, 24.4551376 ], [ 69.0874792, 24.4506841 ], [ 69.0872647, 24.4465429 ], [ 69.0894319, 24.4438863 ], [ 69.0900756, 24.4433393 ], [ 69.0897538, 24.4407998 ], [ 69.0896313, 24.4406799 ], [ 69.0874792, 24.4385728 ], [ 69.0812565, 24.435662 ], [ 69.0789606, 24.433982 ], [ 69.0783812, 24.4327707 ], [ 69.0786172, 24.4303287 ], [ 69.080763, 24.4263627 ], [ 69.0808703, 24.4247802 ], [ 69.0799691, 24.4224162 ], [ 69.0787889, 24.4181569 ], [ 69.0785743, 24.4108494 ], [ 69.076214, 24.4068046 ], [ 69.0755702, 24.4039517 ], [ 69.0775762, 24.3997967 ], [ 69.0777589, 24.3994182 ], [ 69.0782095, 24.3972882 ], [ 69.07645, 24.3942788 ], [ 69.0729095, 24.3893932 ], [ 69.0693475, 24.3862663 ], [ 69.0678455, 24.383667 ], [ 69.0644981, 24.3750871 ], [ 69.0619232, 24.3684807 ], [ 69.0620734, 24.3665651 ], [ 69.0652276, 24.3615807 ], [ 69.0719868, 24.3547782 ], [ 69.0740897, 24.352491 ], [ 69.0744759, 24.3508294 ], [ 69.0743901, 24.3489722 ], [ 69.0723945, 24.3463722 ], [ 69.0628888, 24.339823 ], [ 69.0600993, 24.3374964 ], [ 69.0576102, 24.334251 ], [ 69.0570523, 24.3329606 ], [ 69.0563871, 24.3283463 ], [ 69.0580822, 24.3250615 ], [ 69.0624381, 24.3163798 ], [ 69.068339, 24.3111588 ], [ 69.0779091, 24.3039624 ], [ 69.0800334, 24.2997577 ], [ 69.0813638, 24.293167 ], [ 69.0895821, 24.2791629 ], [ 69.09482, 24.27444 ], [ 69.09444, 24.27369 ], [ 69.09391, 24.27264 ], [ 69.09382, 24.27125 ], [ 69.09182, 24.27035 ], [ 69.0899, 24.27011 ], [ 69.08807, 24.26943 ], [ 69.08645, 24.26786 ], [ 69.08439, 24.26687 ], [ 69.08363, 24.26555 ], [ 69.08038, 24.26386 ], [ 69.07647, 24.26181 ], [ 69.07256, 24.25977 ], [ 69.06787, 24.25732 ], [ 69.06318, 24.25487 ], [ 69.05901, 24.25269 ], [ 69.05484, 24.25051 ], [ 69.05063, 24.24831 ], [ 69.04649, 24.24615 ], [ 69.04231, 24.24396 ], [ 69.03812, 24.24177 ], [ 69.03406, 24.23965 ], [ 69.03203, 24.23615 ], [ 69.02656, 24.23226 ], [ 69.02105, 24.22833 ], [ 69.01675, 24.2262 ], [ 69.0128, 24.22424 ], [ 69.00798, 24.22318 ], [ 69.00342, 24.22306 ], [ 68.9984817, 24.223776 ], [ 68.9937771, 24.2244678 ], [ 68.9893812, 24.2257132 ], [ 68.9848464, 24.2276651 ], [ 68.9831865, 24.2317376 ], [ 68.981558, 24.2354736 ], [ 68.9798124, 24.2399653 ], [ 68.9785884, 24.2439567 ], [ 68.9772472, 24.2482036 ], [ 68.9758635, 24.2524186 ], [ 68.9744373, 24.2566336 ], [ 68.9731174, 24.2605399 ], [ 68.9712524, 24.2645092 ], [ 68.9690933, 24.2686195 ], [ 68.96732, 24.27214 ], [ 68.96498, 24.27604 ], [ 68.9628, 24.27968 ], [ 68.95981, 24.28334 ], [ 68.95711, 24.28665 ], [ 68.95397, 24.2909 ], [ 68.95111, 24.29478 ], [ 68.94824, 24.29866 ], [ 68.94538, 24.30253 ], [ 68.94246, 24.30131 ], [ 68.93982, 24.2987 ], [ 68.93621, 24.29694 ], [ 68.93249, 24.29513 ], [ 68.92858, 24.29302 ], [ 68.92445, 24.29078 ], [ 68.92106, 24.28887 ], [ 68.91692, 24.28654 ], [ 68.91275, 24.28419 ], [ 68.90988, 24.28209 ], [ 68.90678, 24.27983 ], [ 68.90359, 24.27506 ], [ 68.90149, 24.27117 ], [ 68.89949, 24.26746 ], [ 68.8975, 24.26376 ], [ 68.89603, 24.2599 ], [ 68.8951704, 24.2583518 ], [ 68.8947585, 24.256807 ], [ 68.89453, 24.25595 ], [ 68.89304, 24.25201 ], [ 68.89177, 24.24799 ], [ 68.8905, 24.24399 ], [ 68.88996, 24.24074 ], [ 68.88942, 24.23748 ], [ 68.88794, 24.23418 ], [ 68.8856, 24.22895 ], [ 68.8837, 24.22471 ], [ 68.8818, 24.22047 ], [ 68.8799, 24.21623 ], [ 68.8772, 24.21493 ], [ 68.87431, 24.212 ], [ 68.87014, 24.2121 ], [ 68.86607, 24.2122 ], [ 68.8660225, 24.2122031 ], [ 68.8567389, 24.2138826 ], [ 68.8550747, 24.2178681 ], [ 68.853308, 24.222016 ], [ 68.8520232, 24.2260984 ], [ 68.8507238, 24.2302854 ], [ 68.8507061, 24.2302954 ], [ 68.85072, 24.23031 ], [ 68.84903, 24.23445 ], [ 68.8473, 24.23872 ], [ 68.84634, 24.24298 ], [ 68.84539, 24.24722 ], [ 68.84491, 24.25162 ], [ 68.84442, 24.25601 ], [ 68.84394, 24.26041 ], [ 68.84406, 24.26483 ], [ 68.84419, 24.2693 ], [ 68.84387, 24.27342 ], [ 68.84356, 24.27753 ], [ 68.84173, 24.2824 ], [ 68.8399, 24.28727 ], [ 68.83808, 24.29213 ], [ 68.83625, 24.297 ], [ 68.83442, 24.30187 ], [ 68.83259, 24.30674 ], [ 68.8308, 24.31152 ], [ 68.8287, 24.31516 ], [ 68.82616, 24.31736 ], [ 68.82316, 24.31482 ], [ 68.82019, 24.3123 ], [ 68.81412, 24.31289 ], [ 68.80801, 24.31349 ], [ 68.80228, 24.31125 ], [ 68.79652, 24.30902 ], [ 68.79076, 24.30678 ], [ 68.78533, 24.30446 ], [ 68.7798706, 24.3021321 ], [ 68.7689919, 24.2974805 ], [ 68.7646957, 24.2957886 ], [ 68.7646932, 24.2958015 ], [ 68.7576621, 24.3374779 ], [ 68.7501949, 24.3709445 ], [ 68.6732262, 24.3694785 ], [ 68.6159771, 24.3628327 ], [ 68.5941761, 24.360448 ], [ 68.5738772, 24.3610931 ], [ 68.5606163, 24.3610149 ], [ 68.5452741, 24.3613863 ], [ 68.5449522, 24.3594902 ], [ 68.5272497, 24.3583955 ], [ 68.5208124, 24.359627 ], [ 68.5170787, 24.3580046 ], [ 68.4804859, 24.3593615 ], [ 68.4784475, 24.3533603 ], [ 68.4361544, 24.3527934 ], [ 68.4362188, 24.3573286 ], [ 68.4224858, 24.3574459 ], [ 68.4074226, 24.3583646 ], [ 68.4042468, 24.3729658 ], [ 68.3897414, 24.370894 ], [ 68.3878317, 24.3741776 ], [ 68.3915868, 24.3785556 ], [ 68.3982816, 24.3850833 ], [ 68.4009209, 24.38993 ], [ 68.404161, 24.3975905 ], [ 68.3967366, 24.3989389 ], [ 68.3887329, 24.3964376 ], [ 68.3762231, 24.3901059 ], [ 68.3694854, 24.3909853 ], [ 68.3690053, 24.3954878 ], [ 68.3693486, 24.4068997 ], [ 68.3693272, 24.4101042 ], [ 68.3697134, 24.4151844 ], [ 68.3716903, 24.4273504 ], [ 68.3717118, 24.4302809 ], [ 68.3702097, 24.4367277 ], [ 68.370317, 24.4550507 ], [ 68.3688794, 24.461965 ], [ 68.3691798, 24.4655197 ], [ 68.3714103, 24.4681726 ], [ 68.366518, 24.4740512 ], [ 68.3653378, 24.4772149 ], [ 68.3653378, 24.4792069 ], [ 68.365252, 24.4830931 ], [ 68.3651876, 24.4855536 ], [ 68.3655309, 24.4920367 ], [ 68.3661317, 24.4947119 ], [ 68.3666252, 24.5004525 ], [ 68.3689641, 24.5099221 ], [ 68.3692216, 24.5126164 ], [ 68.3654665, 24.5129483 ], [ 68.36272, 24.5121283 ], [ 68.3601236, 24.5172239 ], [ 68.3548235, 24.5240958 ], [ 68.3548664, 24.5271411 ] ] ] ] } }
]
}
