{
"type": "FeatureCollection",
"name": "nasa_power_wind_grid",
"crs": { "type": "name", "properties": { "name": "urn:ogc:def:crs:OGC:1.3:CRS84" } },
"features": [
{ "type": "Feature", "properties": { "latitude": 24.34119, "longitude": 66.969444, "wind_speed_10m": 5.06, "wind_speed_50m": 5.76, "wind_power_density": 117.0505728 }, "geometry": { "type": "Point", "coordinates": [ 66.969444, 24.34119 ] } },
{ "type": "Feature", "properties": { "latitude": 24.59119, "longitude": 66.969444, "wind_speed_10m": 5.06, "wind_speed_50m": 5.76, "wind_power_density": 117.0505728 }, "geometry": { "type": "Point", "coordinates": [ 66.969444, 24.59119 ] } },
{ "type": "Feature", "properties": { "latitude": 24.09119, "longitude": 67.219444, "wind_speed_10m": 4.92, "wind_speed_50m": 6.09, "wind_power_density": 138.3432490125 }, "geometry": { "type": "Point", "coordinates": [ 67.219444, 24.09119 ] } },
{ "type": "Feature", "properties": { "latitude": 24.34119, "longitude": 67.219444, "wind_speed_10m": 4.74, "wind_speed_50m": 6.08, "wind_power_density": 137.6628736 }, "geometry": { "type": "Point", "coordinates": [ 67.219444, 24.34119 ] } },
{ "type": "Feature", "properties": { "latitude": 24.59119, "longitude": 67.219444, "wind_speed_10m": 4.74, "wind_speed_50m": 6.08, "wind_power_density": 137.6628736 }, "geometry": { "type": "Point", "coordinates": [ 67.219444, 24.59119 ] } },
{ "type": "Feature", "properties": { "latitude": 24.09119, "longitude": 67.469444, "wind_speed_10m": 4.92, "wind_speed_50m": 6.09, "wind_power_density": 138.3432490125 }, "geometry": { "type": "Point", "coordinates": [ 67.469444, 24.09119 ] } },
{ "type": "Feature", "properties": { "latitude": 24.34119, "longitude": 67.469444, "wind_speed_10m": 4.74, "wind_speed_50m": 6.08, "wind_power_density": 137.6628736 }, "geometry": { "type": "Point", "coordinates": [ 67.469444, 24.34119 ] } },
{ "type": "Feature", "properties": { "latitude": 24.59119, "longitude": 67.469444, "wind_speed_10m": 4.74, "wind_speed_50m": 6.08, "wind_power_density": 137.6628736 }, "geometry": { "type": "Point", "coordinates": [ 67.469444, 24.59119 ] } },
{ "type": "Feature", "properties": { "latitude": 24.84119, "longitude": 67.469444, "wind_speed_10m": 4.6, "wind_speed_50m": 6.04, "wind_power_density": 134.9636792 }, "geometry": { "type": "Point", "coordinates": [ 67.469444, 24.84119 ] } },
{ "type": "Feature", "properties": { "latitude": 24.34119, "longitude": 67.719444, "wind_speed_10m": 4.74, "wind_speed_50m": 6.08, "wind_power_density": 137.6628736 }, "geometry": { "type": "Point", "coordinates": [ 67.719444, 24.34119 ] } },
{ "type": "Feature", "properties": { "latitude": 24.59119, "longitude": 67.719444, "wind_speed_10m": 4.74, "wind_speed_50m": 6.08, "wind_power_density": 137.6628736 }, "geometry": { "type": "Point", "coordinates": [ 67.719444, 24.59119 ] } },
{ "type": "Feature", "properties": { "latitude": 24.84119, "longitude": 67.719444, "wind_speed_10m": 4.6, "wind_speed_50m": 6.04, "wind_power_density": 134.9636792 }, "geometry": { "type": "Point", "coordinates": [ 67.719444, 24.84119 ] } },
{ "type": "Feature", "properties": { "latitude": 24.59119, "longitude": 67.969444, "wind_speed_10m": 4.64, "wind_speed_50m": 6.22, "wind_power_density": 147.3931319 }, "geometry": { "type": "Point", "coordinates": [ 67.969444, 24.59119 ] } },
{ "type": "Feature", "properties": { "latitude": 24.84119, "longitude": 67.969444, "wind_speed_10m": 4.7, "wind_speed_50m": 6.28, "wind_power_density": 151.6998056 }, "geometry": { "type": "Point", "coordinates": [ 67.969444, 24.84119 ] } },
{ "type": "Feature", "properties": { "latitude": 25.09119, "longitude": 67.969444, "wind_speed_10m": 4.7, "wind_speed_50m": 6.28, "wind_power_density": 151.6998056 }, "geometry": { "type": "Point", "coordinates": [ 67.969444, 25.09119 ] } },
{ "type": "Feature", "properties": { "latitude": 25.34119, "longitude": 67.969444, "wind_speed_10m": 4.51, "wind_speed_50m": 6.02, "wind_power_density": 133.6274149 }, "geometry": { "type": "Point", "coordinates": [ 67.969444, 25.34119 ] } },
{ "type": "Feature", "properties": { "latitude": 25.09119, "longitude": 68.219444, "wind_speed_10m": 4.7, "wind_speed_50m": 6.28, "wind_power_density": 151.6998056 }, "geometry": { "type": "Point", "coordinates": [ 68.219444, 25.09119 ] } },
{ "type": "Feature", "properties": { "latitude": 24.59119, "longitude": 68.469444, "wind_speed_10m": 4.53, "wind_speed_50m": 6.05, "wind_power_density": 135.6351390625 }, "geometry": { "type": "Point", "coordinates": [ 68.469444, 24.59119 ] } },
{ "type": "Feature", "properties": { "latitude": 24.84119, "longitude": 68.469444, "wind_speed_10m": 4.4, "wind_speed_50m": 5.94, "wind_power_density": 128.3705577 }, "geometry": { "type": "Point", "coordinates": [ 68.469444, 24.84119 ] } },
{ "type": "Feature", "properties": { "latitude": 24.59119, "longitude": 68.719444, "wind_speed_10m": 4.53, "wind_speed_50m": 6.05, "wind_power_density": 135.6351390625 }, "geometry": { "type": "Point", "coordinates": [ 68.719444, 24.59119 ] } },
{ "type": "Feature", "properties": { "latitude": 25.09119, "longitude": 68.719444, "wind_speed_10m": 4.4, "wind_speed_50m": 5.94, "wind_power_density": 128.3705577 }, "geometry": { "type": "Point", "coordinates": [ 68.719444, 25.09119 ] } },
{ "type": "Feature", "properties": { "latitude": 24.34119, "longitude": 68.969444, "wind_speed_10m": 4.53, "wind_speed_50m": 6.05, "wind_power_density": 135.6351390625 }, "geometry": { "type": "Point", "coordinates": [ 68.969444, 24.34119 ] } },
{ "type": "Feature", "properties": { "latitude": 24.59119, "longitude": 68.969444, "wind_speed_10m": 4.53, "wind_speed_50m": 6.05, "wind_power_density": 135.6351390625 }, "geometry": { "type": "Point", "coordinates": [ 68.969444, 24.59119 ] } },
{ "type": "Feature", "properties": { "latitude": 24.84119, "longitude": 68.969444, "wind_speed_10m": 4.4, "wind_speed_50m": 5.94, "wind_power_density": 128.3705577 }, "geometry": { "type": "Point", "coordinates": [ 68.969444, 24.84119 ] } },
{ "type": "Feature", "properties": { "latitude": 25.09119, "longitude": 68.969444, "wind_speed_10m": 4.4, "wind_speed_50m": 5.94, "wind_power_density": 128.3705577 }, "geometry": { "type": "Point", "coordinates": [ 68.969444, 25.09119 ] } },
{ "type": "Feature", "properties": { "latitude": 24.59119, "longitude": 69.219444, "wind_speed_10m": 4.51, "wind_speed_50m": 5.96, "wind_power_density": 129.6716008 }, "geometry": { "type": "Point", "coordinates": [ 69.219444, 24.59119 ] } },
{ "type": "Feature", "properties": { "latitude": 24.84119, "longitude": 69.219444, "wind_speed_10m": 4.32, "wind_speed_50m": 5.78, "wind_power_density": 118.2740881 }, "geometry": { "type": "Point", "coordinates": [ 69.219444, 24.84119 ] } }
]
}
